{"fetched_at":"2026-03-29T02:12:04Z","count":15717,"tles":[{"name":"STARLINK-3973","line1":"1 52645U 22052AZ  26087.53607835  .00000674  00000+0  60408-4 0  9991","line2":"2 52645  53.2162 174.6222 0001243  86.6052 273.5082 15.08838959213979","category":"Starlink"}]}